{"type":"FeatureCollection","features":[{"type":"Feature","geometry":{"type":"Point","coordinates":[105.10581,22.49371]},"properties":{"name":"Tuyên Quang","name_en":"Tuyen Quang"}},{"type":"Feature","geometry":{"type":"Point","coordinates":[106.38794,22.6389]},"properties":{"name":"Cao Bằng","name_en":"Cao Bang"}},{"type":"Feature","geometry":{"type":"Point","coordinates":[103.33718,22.38548]},"properties":{"name":"Lai Châu","name_en":"Lai Chau"}},{"type":"Feature","geometry":{"type":"Point","coordinates":[104.62863,21.83769]},"properties":{"name":"Lào Cai","name_en":"Lao Cai"}},{"type":"Feature","geometry":{"type":"Point","coordinates":[105.80801,22.1925]},"properties":{"name":"Thái Nguyên","name_en":"Thai Nguyen"}},{"type":"Feature","geometry":{"type":"Point","coordinates":[103.26489,21.72103]},"properties":{"name":"Điện Biên","name_en":"Dien Bien"}},{"type":"Feature","geometry":{"type":"Point","coordinates":[106.4085,21.94435]},"properties":{"name":"Lạng Sơn","name_en":"Lang Son"}},{"type":"Feature","geometry":{"type":"Point","coordinates":[103.83882,21.29046]},"properties":{"name":"Sơn La","name_en":"Son La"}},{"type":"Feature","geometry":{"type":"Point","coordinates":[105.28582,20.75856]},"properties":{"name":"Phú Thọ","name_en":"Phu Tho"}},{"type":"Feature","geometry":{"type":"Point","coordinates":[106.6646,21.36835]},"properties":{"name":"Bắc Ninh","name_en":"Bac Ninh"}},{"type":"Feature","geometry":{"type":"Point","coordinates":[107.17284,21.17411]},"properties":{"name":"Quảng Ninh","name_en":"Quang Ninh"}},{"type":"Feature","geometry":{"type":"Point","coordinates":[105.7366,21.02644]},"properties":{"name":"Hà Nội","name_en":"Hanoi"}},{"type":"Feature","geometry":{"type":"Point","coordinates":[106.56973,20.82891]},"properties":{"name":"Hải Phòng","name_en":"Haiphong"}},{"type":"Feature","geometry":{"type":"Point","coordinates":[106.35678,20.51701]},"properties":{"name":"Hưng Yên","name_en":"Hung Yen"}},{"type":"Feature","geometry":{"type":"Point","coordinates":[106.03226,20.29384]},"properties":{"name":"Ninh Bình","name_en":"Ninh Binh"}},{"type":"Feature","geometry":{"type":"Point","coordinates":[105.54535,19.88408]},"properties":{"name":"Thanh Hóa","name_en":"Thanh Hoa"}},{"type":"Feature","geometry":{"type":"Point","coordinates":[104.8985,19.25033]},"properties":{"name":"Nghệ An","name_en":"Nghe An"}},{"type":"Feature","geometry":{"type":"Point","coordinates":[105.72791,18.29496]},"properties":{"name":"Hà Tĩnh","name_en":"Ha Tinh"}},{"type":"Feature","geometry":{"type":"Point","coordinates":[106.85423,16.85272]},"properties":{"name":"Quảng Trị","name_en":"Quang Tri"}},{"type":"Feature","geometry":{"type":"Point","coordinates":[107.46144,16.35639]},"properties":{"name":"Huế","name_en":"Hue"}},{"type":"Feature","geometry":{"type":"Point","coordinates":[108.01454,15.62908]},"properties":{"name":"Đà Nẵng","name_en":"Da Nang"}},{"type":"Feature","geometry":{"type":"Point","coordinates":[107.91008,14.64905]},"properties":{"name":"Quảng Ngãi","name_en":"Quang Ngai"}},{"type":"Feature","geometry":{"type":"Point","coordinates":[108.34934,13.86135]},"properties":{"name":"Gia Lai","name_en":"Gia Lai"}},{"type":"Feature","geometry":{"type":"Point","coordinates":[108.34227,12.67846]},"properties":{"name":"Đắk Lắk","name_en":"Dak Lak"}},{"type":"Feature","geometry":{"type":"Point","coordinates":[108.9541,12.07393]},"properties":{"name":"Khánh Hòa","name_en":"Khanh Hoa"}},{"type":"Feature","geometry":{"type":"Point","coordinates":[108.01119,11.64327]},"properties":{"name":"Lâm Đồng","name_en":"Lam Dong"}},{"type":"Feature","geometry":{"type":"Point","coordinates":[106.96853,11.7534]},"properties":{"name":"Đồng Nai","name_en":"Dong Nai"}},{"type":"Feature","geometry":{"type":"Point","coordinates":[106.13598,11.48828]},"properties":{"name":"Tây Ninh","name_en":"Tay Ninh"}},{"type":"Feature","geometry":{"type":"Point","coordinates":[106.63776,11.16358]},"properties":{"name":"TP. Hồ Chí Minh","name_en":"Ho Chi Minh City"}},{"type":"Feature","geometry":{"type":"Point","coordinates":[105.76382,10.41816]},"properties":{"name":"Đồng Tháp","name_en":"Dong Thap"}},{"type":"Feature","geometry":{"type":"Point","coordinates":[105.13277,10.45623]},"properties":{"name":"An Giang","name_en":"An Giang"}},{"type":"Feature","geometry":{"type":"Point","coordinates":[106.24596,10.0142]},"properties":{"name":"Vĩnh Long","name_en":"Vinh Long"}},{"type":"Feature","geometry":{"type":"Point","coordinates":[105.79784,9.6796]},"properties":{"name":"Cần Thơ","name_en":"Can Tho"}},{"type":"Feature","geometry":{"type":"Point","coordinates":[105.11872,9.12831]},"properties":{"name":"Cà Mau","name_en":"Ca Mau"}}]}